OBJECT_NAME,OBJECT_ID,EPOCH,MEAN_MOTION,ECCENTRICITY,INCLINATION,RA_OF_ASC_NODE,ARG_OF_PERICENTER,MEAN_ANOMALY,EPHEMERIS_TYPE,CLASSIFICATION_TYPE,NORAD_CAT_ID,ELEMENT_SET_NO,REV_AT_EPOCH,BSTAR,MEAN_MOTION_DOT,MEAN_MOTION_DDOT
H-2A R/B,2006-002B,2026-07-16T01:16:47.303328,15.18453795,.00508491,98.2594,355.5062,163.1193,197.1745,0,U,28932,999,11390,.23929107E-3,.5014E-4,0
RESURS-DK 1,2006-021A,2026-07-16T04:27:33.841440,15.13320706,.00071617,69.9306,264.4811,269.9586,90.0759,0,U,29228,999,10696,.53924673E-4,.854E-5,0
CZ-4B R/B,2006-046C,2026-07-16T04:38:00.411648,15.17985780,.00326978,97.5435,241.7113,178.6719,181.4608,0,U,29507,999,7953,.11177504E-3,.2231E-4,0
CZ-2C R/B,2007-010B,2026-07-16T05:24:48.723552,14.20281937,.00577642,98.4120,304.1594,280.7099,78.7578,0,U,31114,999,99796,.3313211E-4,.3E-6,0
COSMO-SKYMED 1,2007-023A,2026-07-16T06:35:32.816832,14.97222270,.00015179,97.8847,29.3767,102.7197,257.4194,0,U,31598,999,3414,.12639462E-3,.1402E-4,0
COSMOS 2428,2007-029A,2026-07-16T05:46:44.484960,14.12935074,.00072209,70.9381,293.4760,79.2317,280.9617,0,U,31792,999,98225,.16297526E-3,.256E-5,0
SL-16 R/B,2007-029B,2026-07-16T05:29:51.101088,14.14852236,.00019396,70.9744,262.1795,256.5188,120.3646,0,U,31793,999,98355,.13887282E-3,.22E-5,0
KORONAS-FOTON,2009-003A,2026-07-16T06:27:29.994624,15.46314729,.00120774,82.4312,141.9101,59.1738,301.0697,0,U,33504,999,96559,.15599062E-3,.7749E-4,0
CZ-2C R/B,2011-030B,2026-07-16T07:18:51.325344,14.81533427,.00507734,97.8670,152.1696,292.4418,229.5600,0,U,37731,999,80913,.62262898E-4,.443E-5,0
H-2A R/B,2012-025E,2026-07-16T04:32:40.192512,14.95838619,.00425436,98.4847,174.7318,251.7387,107.9200,0,U,38341,999,76742,.51100268E-4,.509E-5,0
SHIJIAN-16 (SJ-16),2013-057A,2026-07-16T06:16:42.985632,14.92675877,.00157445,74.9743,301.6142,162.2262,197.9481,0,U,39358,999,69068,.15124001E-3,.1534E-4,0
SL-4 R/B,2014-021B,2026-07-16T03:47:30.882912,15.42494497,.00895586,51.6065,68.7835,212.0367,147.5156,0,U,39679,999,67608,.10806577E-3,.5027E-4,0
ALOS-2,2014-029A,2026-07-16T06:56:03.858720,14.79467481,.00015627,97.9234,294.0363,92.1528,267.9863,0,U,39766,999,65588,.59418495E-4,.392E-5,0
YAOGAN-29,2015-069A,2026-07-16T06:09:06.625152,14.83109099,.00006495,98.0016,225.9336,14.3964,345.7268,0,U,41038,999,57493,.84219878E-4,.632E-5,0
ASTRO-H (HITOMI),2016-012A,2026-07-16T04:11:13.803648,15.10634673,.00096599,30.9979,246.9619,185.1656,174.8883,0,U,41337,999,57167,.6654131E-4,.1225E-4,0
HXMT (HUIYAN),2017-034A,2026-07-16T00:13:12.237024,15.18692866,.00322019,43.0154,22.5259,325.8527,34.0250,0,U,42758,999,50204,.11622723E-3,.2239E-4,0
SAOCOM 1A,2018-076A,2026-07-16T05:35:39.514272,14.82148234,.00014796,97.8881,23.5592,85.0187,275.1195,0,U,43641,999,42040,.20067282E-4,.108E-5,0
H-2A R/B,2018-084L,2026-07-16T04:40:04.461312,15.46225494,.00205141,98.8528,82.4442,296.9245,62.9904,0,U,43682,999,42560,.2296701E-3,.1126E-3,0
SAOCOM 1B,2020-059A,2026-07-16T06:20:34.890144,14.82157088,.0001502,97.8883,22.6861,83.0705,277.0679,0,U,46265,999,31779,-.6997025E-5,-.108E-5,0
CSS (TIANHE),2021-035A,2026-07-16T05:46:18.701472,15.58121312,.00022414,41.4687,145.4981,301.7123,58.3496,0,U,48274,999,29770,.19132692E-4,.1153E-4,0
COSMOS 2550,2021-056A,2026-07-16T07:15:42.328800,15.33833833,.00085202,67.1436,11.8332,270.1504,89.8674,0,U,48865,999,28318,.84611836E-4,.2593E-4,0
CZ-2C R/B,2022-058K,2026-07-15T12:02:53.242368,15.63873458,.00301342,50.1855,15.9607,23.9117,336.3250,0,U,52794,999,23007,.28016353E-3,.27038E-3,0
CZ-2C R/B,2022-132E,2026-07-16T06:46:18.229152,15.75089711,.00092558,97.2889,205.6834,336.8504,23.2343,0,U,54039,999,21052,.29202656E-3,.43571E-3,0
GSLV R/B,2022-138AN,2026-07-16T06:08:44.552544,14.97385151,.00234257,87.3817,123.2232,48.7383,311.5862,0,U,54149,999,20316,.1126376E-3,.1345E-4,0
XRISM,2023-137A,2026-07-16T07:00:38.124288,15.12673429,.00078847,31.0009,171.0361,257.0216,102.9542,0,U,57800,999,15727,.10908509E-3,.2055E-4,0
ACS3,2024-077B,2026-07-16T04:28:36.586848,13.95281169,.01267682,97.1744,109.5492,35.5380,325.4149,0,U,59588,999,11208,.38082476E-2,.5482E-4,0
SPACEMOBILE-003,2024-163A,2026-07-16T04:46:48.810720,15.20707297,.00047068,52.9668,176.0266,196.8318,163.2521,0,U,61045,999,10218,.57482196E-4,.954E-5,0
SPACEMOBILE-005,2024-163B,2026-07-16T04:22:57.720000,15.20721538,.00086662,52.9763,176.0529,198.6059,161.4620,0,U,61046,999,10217,.11173411E-3,.2163E-4,0
SPACEMOBILE-001,2024-163C,2026-07-16T04:20:33.533088,15.20742034,.00071406,52.9729,175.7702,196.5814,163.4948,0,U,61047,999,10217,.18420677E-4,.83E-6,0
SPACEMOBILE-002,2024-163D,2026-07-16T05:31:55.802208,15.20777977,.00058775,52.9781,175.5821,195.8282,164.2529,0,U,61048,999,10218,-.20797973E-4,-.792E-5,0
