H-2A R/B                
1 28932U 06002B   26197.05332527  .00005014  00000+0  23929-3 0  9991
2 28932  98.2594 355.5062 0050849 163.1193 197.1745 15.18453795113905
RESURS-DK 1             
1 29228U 06021A   26197.18580835  .00000854  00000+0  53925-4 0  9999
2 29228  69.9306 264.4811 0007161 269.9586  90.0759 15.13320706106964
CZ-4B R/B               
1 29507U 06046C   26197.19306032  .00002231  00000+0  11178-3 0  9996
2 29507  97.5435 241.7113 0032697 178.6719 181.4608 15.17985780 79536
CZ-2C R/B               
1 31114U 07010B   26197.22556393  .00000030  00000+0  33132-4 0  9996
2 31114  98.4120 304.1594 0057764 280.7099  78.7578 14.20281937997965
COSMO-SKYMED 1          
1 31598U 07023A   26197.27468538  .00001402  00000+0  12639-3 0  9996
2 31598  97.8847  29.3767 0001517 102.7197 257.4194 14.97222270 34146
COSMOS 2428             
1 31792U 07029A   26197.24079265  .00000256  00000+0  16298-3 0  9991
2 31792  70.9381 293.4760 0007220  79.2317 280.9617 14.12935074982258
SL-16 R/B               
1 31793U 07029B   26197.22906367  .00000220  00000+0  13887-3 0  9994
2 31793  70.9744 262.1795 0001939 256.5188 120.3646 14.14852236983553
KORONAS-FOTON           
1 33504U 09003A   26197.26909716  .00007749  00000+0  15599-3 0  9990
2 33504  82.4312 141.9101 0012077  59.1738 301.0697 15.46314729965596
CZ-2C R/B               
1 37731U 11030B   26197.30476071  .00000443  00000+0  62263-4 0  9992
2 37731  97.8670 152.1696 0050773 292.4418 229.5600 14.81533427809135
H-2A R/B                
1 38341U 12025E   26197.18935408  .00000509  00000+0  51100-4 0  9996
2 38341  98.4847 174.7318 0042543 251.7387 107.9200 14.95838619767422
SHIJIAN-16 (SJ-16)      
1 39358U 13057A   26197.26160863  .00001534  00000+0  15124-3 0  9999
2 39358  74.9743 301.6142 0015744 162.2262 197.9481 14.92675877690687
SL-4 R/B                
1 39679U 14021B   26197.15799633  .00005027  00000+0  10807-3 0  9992
2 39679  51.6065  68.7835 0089558 212.0367 147.5156 15.42494497676087
ALOS-2                  
1 39766U 14029A   26197.28893355  .00000392  00000+0  59418-4 0  9999
2 39766  97.9234 294.0363 0001562  92.1528 267.9863 14.79467481655889
YAOGAN-29               
1 41038U 15069A   26197.25632668  .00000632  00000+0  84220-4 0  9990
2 41038  98.0016 225.9336 0000649  14.3964 345.7268 14.83109099574935
ASTRO-H (HITOMI)        
1 41337U 16012A   26197.17446532  .00001225  00000+0  66541-4 0  9990
2 41337  30.9979 246.9619 0009659 185.1656 174.8883 15.10634673571676
HXMT (HUIYAN)           
1 42758U 17034A   26197.00916941  .00002239  00000+0  11623-3 0  9997
2 42758  43.0154  22.5259 0032201 325.8527  34.0250 15.18692866502047
SAOCOM 1A               
1 43641U 18076A   26197.23309623  .00000108  00000+0  20067-4 0  9990
2 43641  97.8881  23.5592 0001479  85.0187 275.1195 14.82148234420404
H-2A R/B                
1 43682U 18084L   26197.19449608  .00011260  00000+0  22967-3 0  9998
2 43682  98.8528  82.4442 0020514 296.9245  62.9904 15.46225494425607
SAOCOM 1B               
1 46265U 20059A   26197.26429271 -.00000108  00000+0 -69970-5 0  9993
2 46265  97.8883  22.6861 0001502  83.0705 277.0679 14.82157088317793
CSS (TIANHE)            
1 48274U 21035A   26197.24049423  .00001153  00000+0  19133-4 0  9999
2 48274  41.4687 145.4981 0002241 301.7123  58.3496 15.58121312297704
COSMOS 2550             
1 48865U 21056A   26197.30257325  .00002593  00000+0  84612-4 0  9990
2 48865  67.1436  11.8332 0008520 270.1504  89.8674 15.33833833283186
CZ-2C R/B               
1 52794U 22058K   26196.50200512  .00027038  00000+0  28016-3 0  9992
2 52794  50.1855  15.9607 0030134  23.9117 336.3250 15.63873458230079
CZ-2C R/B               
1 54039U 22132E   26197.28215543  .00043571  00000+0  29203-3 0  9994
2 54039  97.2889 205.6834 0009255 336.8504  23.2343 15.75089711210525
GSLV R/B                
1 54149U 22138AN  26197.25607121  .00001345  00000+0  11264-3 0  9997
2 54149  87.3817 123.2232 0023425  48.7383 311.5862 14.97385151203165
XRISM                   
1 57800U 23137A   26197.29210792  .00002055  00000+0  10909-3 0  9996
2 57800  31.0009 171.0361 0007884 257.0216 102.9542 15.12673429157279
ACS3                    
1 59588U 24077B   26197.18653457  .00005482  00000+0  38082-2 0  9990
2 59588  97.1744 109.5492 0126768  35.5380 325.4149 13.95281169112088
SPACEMOBILE-003         
1 61045U 24163A   26197.19917605  .00000954  00000+0  57482-4 0  9992
2 61045  52.9668 176.0266 0004706 196.8318 163.2521 15.20707297102187
SPACEMOBILE-005         
1 61046U 24163B   26197.18261250  .00002163  00000+0  11173-3 0  9990
2 61046  52.9763 176.0529 0008666 198.6059 161.4620 15.20721538102170
SPACEMOBILE-001         
1 61047U 24163C   26197.18094367  .00000083  00000+0  18421-4 0  9997
2 61047  52.9729 175.7702 0007140 196.5814 163.4948 15.20742034102173
SPACEMOBILE-002         
1 61048U 24163D   26197.23050697 -.00000792  00000+0 -20798-4 0  9991
2 61048  52.9781 175.5821 0005877 195.8282 164.2529 15.20777977102187
